
[{"ORDINAL":"1","COMMENT":"GENERATED VIA SPACETRACK.ORG API","ORIGINATOR":"JSPOC","NORAD_CAT_ID":"40048","OBJECT_NAME":"SL-24 DEB","OBJECT_TYPE":"DEBRIS","CLASSIFICATION_TYPE":"U","INTLDES":"14033AQ","EPOCH":"2015-04-10 17:11:32","EPOCH_MICROSECONDS":"199359","MEAN_MOTION":"15.05508949","ECCENTRICITY":"0.0040091","INCLINATION":"97.9652","RA_OF_ASC_NODE":"7.3723","ARG_OF_PERICENTER":"89.8839","MEAN_ANOMALY":"270.6703","EPHEMERIS_TYPE":"0","ELEMENT_SET_NO":"999","REV_AT_EPOCH":"4417","BSTAR":"0.001457","MEAN_MOTION_DOT":"0.0002132","MEAN_MOTION_DDOT":"0","FILE":"1854409","TLE_LINE0":"0 SL-24 DEB","TLE_LINE1":"1 40048U 14033AQ  15100.71634490  .00021320  00000-0  14570-2 0  9995","TLE_LINE2":"2 40048 097.9652 007.3723 0040091 089.8839 270.6703 15.05508949 44174","OBJECT_ID":"2014-033AQ","OBJECT_NUMBER":"40048"},{"ORDINAL":"2","COMMENT":"GENERATED VIA SPACETRACK.ORG API","ORIGINATOR":"JSPOC","NORAD_CAT_ID":"39615","OBJECT_NAME":"BREEZE-M DEB (TANK)","OBJECT_TYPE":"DEBRIS","CLASSIFICATION_TYPE":"U","INTLDES":"14010D","EPOCH":"2015-04-10 17:52:59","EPOCH_MICROSECONDS":"816063","MEAN_MOTION":"2.56396265","ECCENTRICITY":"0.7109119","INCLINATION":"48.4078","RA_OF_ASC_NODE":"60.3515","ARG_OF_PERICENTER":"98.2969","MEAN_ANOMALY":"340.8143","EPHEMERIS_TYPE":"0","ELEMENT_SET_NO":"999","REV_AT_EPOCH":"893","BSTAR":"0.00072097","MEAN_MOTION_DOT":"0.00171705","MEAN_MOTION_DDOT":"3.9188e-07","FILE":"1854433","TLE_LINE0":"0 BREEZE-M DEB (TANK)","TLE_LINE1":"1 39615U 14010D   15100.74513676  .00171705  39188-6  72097-3 0  9990","TLE_LINE2":"2 39615 048.4078 060.3515 7109119 098.2969 340.8143 02.56396265  8935","OBJECT_ID":"2014-010D","OBJECT_NUMBER":"39615"},{"ORDINAL":"1","COMMENT":"GENERATED VIA SPACETRACK.ORG API","ORIGINATOR":"JSPOC","NORAD_CAT_ID":"39629","OBJECT_NAME":"CZ-2C DEB","OBJECT_TYPE":"DEBRIS","CLASSIFICATION_TYPE":"U","INTLDES":"14014F","EPOCH":"2015-04-10 17:58:03","EPOCH_MICROSECONDS":"589824","MEAN_MOTION":"14.22427552","ECCENTRICITY":"0.0180202","INCLINATION":"98.452","RA_OF_ASC_NODE":"145.1384","ARG_OF_PERICENTER":"159.1822","MEAN_ANOMALY":"201.6818","EPHEMERIS_TYPE":"0","ELEMENT_SET_NO":"999","REV_AT_EPOCH":"5336","BSTAR":"0.0005381","MEAN_MOTION_DOT":"1.373e-05","MEAN_MOTION_DDOT":"0","FILE":"1854215","TLE_LINE0":"0 CZ-2C DEB","TLE_LINE1":"1 39629U 14014F   15100.74865266  .00001373  00000-0  53810-3 0  9994","TLE_LINE2":"2 39629 098.4520 145.1384 0180202 159.1822 201.6818 14.22427552 53363","OBJECT_ID":"2014-014F","OBJECT_NUMBER":"39629"},{"ORDINAL":"1","COMMENT":"GENERATED VIA SPACETRACK.ORG API","ORIGINATOR":"JSPOC","NORAD_CAT_ID":"40290","OBJECT_NAME":"CZ-2C DEB","OBJECT_TYPE":"DEBRIS","CLASSIFICATION_TYPE":"U","INTLDES":"14066E","EPOCH":"2015-04-10 18:02:30","EPOCH_MICROSECONDS":"287615","MEAN_MOTION":"14.50209982","ECCENTRICITY":"0.0101291","INCLINATION":"97.9704","RA_OF_ASC_NODE":"211.0192","ARG_OF_PERICENTER":"74.8587","MEAN_ANOMALY":"286.3784","EPHEMERIS_TYPE":"0","ELEMENT_SET_NO":"999","REV_AT_EPOCH":"2397","BSTAR":"0.0012043","MEAN_MOTION_DOT":"4.962e-05","MEAN_MOTION_DDOT":"0","FILE":"1854204","TLE_LINE0":"0 CZ-2C DEB","TLE_LINE1":"1 40290U 14066E   15100.75173944  .00004962  00000-0  12043-2 0  9992","TLE_LINE2":"2 40290 097.9704 211.0192 0101291 074.8587 286.3784 14.50209982 23971","OBJECT_ID":"2014-066E","OBJECT_NUMBER":"40290"},{"ORDINAL":"1","COMMENT":"GENERATED VIA SPACETRACK.ORG API","ORIGINATOR":"JSPOC","NORAD_CAT_ID":"40274","OBJECT_NAME":"ARIANE 5 DEB (SYLDA)","OBJECT_TYPE":"DEBRIS","CLASSIFICATION_TYPE":"U","INTLDES":"14062D","EPOCH":"2015-04-10 18:07:42","EPOCH_MICROSECONDS":"619295","MEAN_MOTION":"2.37830573","ECCENTRICITY":"0.7216196","INCLINATION":"6.0109","RA_OF_ASC_NODE":"101.4473","ARG_OF_PERICENTER":"327.7825","MEAN_ANOMALY":"3.6606","EPHEMERIS_TYPE":"0","ELEMENT_SET_NO":"999","REV_AT_EPOCH":"407","BSTAR":"0.0084551","MEAN_MOTION_DOT":"0.00059918","MEAN_MOTION_DDOT":"0","FILE":"1854408","TLE_LINE0":"0 ARIANE 5 DEB (SYLDA)","TLE_LINE1":"1 40274U 14062D   15100.75535439  .00059918  00000-0  84551-2 0  9995","TLE_LINE2":"2 40274 006.0109 101.4473 7216196 327.7825 003.6606 02.37830573  4071","OBJECT_ID":"2014-062D","OBJECT_NUMBER":"40274"},{"ORDINAL":"1","COMMENT":"GENERATED VIA SPACETRACK.ORG API","ORIGINATOR":"JSPOC","NORAD_CAT_ID":"40279","OBJECT_NAME":"BREEZE-M DEB (TANK)","OBJECT_TYPE":"DEBRIS","CLASSIFICATION_TYPE":"U","INTLDES":"14064C","EPOCH":"2015-04-10 18:10:10","EPOCH_MICROSECONDS":"607807","MEAN_MOTION":"2.16163216","ECCENTRICITY":"0.7400907","INCLINATION":"48.8866","RA_OF_ASC_NODE":"223.1562","ARG_OF_PERICENTER":"37.269","MEAN_ANOMALY":"355.9028","EPHEMERIS_TYPE":"0","ELEMENT_SET_NO":"999","REV_AT_EPOCH":"367","BSTAR":"0.0016353","MEAN_MOTION_DOT":"0.00025113","MEAN_MOTION_DDOT":"-3.0143e-07","FILE":"1854412","TLE_LINE0":"0 BREEZE-M DEB (TANK)","TLE_LINE1":"1 40279U 14064C   15100.75706722  .00025113 -30143-6  16353-2 0  9990","TLE_LINE2":"2 40279 048.8866 223.1562 7400907 037.2690 355.9028 02.16163216  3675","OBJECT_ID":"2014-064C","OBJECT_NUMBER":"40279"},{"ORDINAL":"1","COMMENT":"GENERATED VIA SPACETRACK.ORG API","ORIGINATOR":"JSPOC","NORAD_CAT_ID":"40343","OBJECT_NAME":"CZ-4C DEB","OBJECT_TYPE":"DEBRIS","CLASSIFICATION_TYPE":"U","INTLDES":"14080F","EPOCH":"2015-04-10 18:11:48","EPOCH_MICROSECONDS":"211295","MEAN_MOTION":"13.44173307","ECCENTRICITY":"0.0014803","INCLINATION":"63.4184","RA_OF_ASC_NODE":"10.7483","ARG_OF_PERICENTER":"5.1746","MEAN_ANOMALY":"354.9438","EPHEMERIS_TYPE":"0","ELEMENT_SET_NO":"999","REV_AT_EPOCH":"1626","BSTAR":"0","MEAN_MOTION_DOT":"-9e-07","MEAN_MOTION_DDOT":"0","FILE":"1854210","TLE_LINE0":"0 CZ-4C DEB","TLE_LINE1":"1 40343U 14080F   15100.75819689 -.00000090  00000-0  00000+0 0  9996","TLE_LINE2":"2 40343 063.4184 010.7483 0014803 005.1746 354.9438 13.44173307 16268","OBJECT_ID":"2014-080F","OBJECT_NUMBER":"40343"},{"ORDINAL":"1","COMMENT":"GENERATED VIA SPACETRACK.ORG API","ORIGINATOR":"JSPOC","NORAD_CAT_ID":"39627","OBJECT_NAME":"CZ-2C DEB","OBJECT_TYPE":"DEBRIS","CLASSIFICATION_TYPE":"U","INTLDES":"14014D","EPOCH":"2015-04-10 18:31:13","EPOCH_MICROSECONDS":"270367","MEAN_MOTION":"14.21055051","ECCENTRICITY":"0.0185145","INCLINATION":"98.0465","RA_OF_ASC_NODE":"127.1964","ARG_OF_PERICENTER":"147.7975","MEAN_ANOMALY":"213.4671","EPHEMERIS_TYPE":"0","ELEMENT_SET_NO":"999","REV_AT_EPOCH":"5331","BSTAR":"0.00057809","MEAN_MOTION_DOT":"1.453e-05","MEAN_MOTION_DDOT":"0","FILE":"1854214","TLE_LINE0":"0 CZ-2C DEB","TLE_LINE1":"1 39627U 14014D   15100.77168137  .00001453  00000-0  57809-3 0  9999","TLE_LINE2":"2 39627 098.0465 127.1964 0185145 147.7975 213.4671 14.21055051 53315","OBJECT_ID":"2014-014D","OBJECT_NUMBER":"39627"},{"ORDINAL":"1","COMMENT":"GENERATED VIA SPACETRACK.ORG API","ORIGINATOR":"JSPOC","NORAD_CAT_ID":"40537","OBJECT_NAME":"SL-24 DEB","OBJECT_TYPE":"DEBRIS","CLASSIFICATION_TYPE":"U","INTLDES":"15014B","EPOCH":"2015-04-10 19:16:04","EPOCH_MICROSECONDS":"857600","MEAN_MOTION":"15.16920349","ECCENTRICITY":"0.0023521","INCLINATION":"97.5151","RA_OF_ASC_NODE":"41.2871","ARG_OF_PERICENTER":"271.9893","MEAN_ANOMALY":"87.8867","EPHEMERIS_TYPE":"0","ELEMENT_SET_NO":"999","REV_AT_EPOCH":"240","BSTAR":"0.0011107","MEAN_MOTION_DOT":"0.00022032","MEAN_MOTION_DDOT":"0","FILE":"1854314","TLE_LINE0":"0 SL-24 DEB","TLE_LINE1":"1 40537U 15014B   15100.80283400  .00022032  00000-0  11107-2 0  9993","TLE_LINE2":"2 40537 097.5151 041.2871 0023521 271.9893 087.8867 15.16920349  2404","OBJECT_ID":"2015-014B","OBJECT_NUMBER":"40537"},{"ORDINAL":"1","COMMENT":"GENERATED VIA SPACETRACK.ORG API","ORIGINATOR":"JSPOC","NORAD_CAT_ID":"39511","OBJECT_NAME":"ARIANE 5 DEB (SYLDA)","OBJECT_TYPE":"DEBRIS","CLASSIFICATION_TYPE":"U","INTLDES":"14006D","EPOCH":"2015-04-10 23:10:19","EPOCH_MICROSECONDS":"552512","MEAN_MOTION":"2.63634804","ECCENTRICITY":"0.6995771","INCLINATION":"5.9334","RA_OF_ASC_NODE":"87.9821","ARG_OF_PERICENTER":"204.7773","MEAN_ANOMALY":"92.0039","EPHEMERIS_TYPE":"0","ELEMENT_SET_NO":"999","REV_AT_EPOCH":"1037","BSTAR":"0.0054915","MEAN_MOTION_DOT":"0.00016181","MEAN_MOTION_DDOT":"0","FILE":"1854563","TLE_LINE0":"0 ARIANE 5 DEB (SYLDA)","TLE_LINE1":"1 39511U 14006D   15100.96550408  .00016181  00000-0  54915-2 0  9997","TLE_LINE2":"2 39511 005.9334 087.9821 6995771 204.7773 092.0039 02.63634804 10374","OBJECT_ID":"2014-006D","OBJECT_NUMBER":"39511"},{"ORDINAL":"2","COMMENT":"GENERATED VIA SPACETRACK.ORG API","ORIGINATOR":"JSPOC","NORAD_CAT_ID":"40309","OBJECT_NAME":"CZ-2C DEB","OBJECT_TYPE":"DEBRIS","CLASSIFICATION_TYPE":"U","INTLDES":"14071E","EPOCH":"2015-04-10 23:28:55","EPOCH_MICROSECONDS":"642655","MEAN_MOTION":"15.15414993","ECCENTRICITY":"0.0101338","INCLINATION":"97.1403","RA_OF_ASC_NODE":"40.2388","ARG_OF_PERICENTER":"58.3657","MEAN_ANOMALY":"302.7259","EPHEMERIS_TYPE":"0","ELEMENT_SET_NO":"999","REV_AT_EPOCH":"2215","BSTAR":"0.0031652","MEAN_MOTION_DOT":"0.00068568","MEAN_MOTION_DDOT":"0","FILE":"1854426","TLE_LINE0":"0 CZ-2C DEB","TLE_LINE1":"1 40309U 14071E   15100.97842179  .00068568  00000-0  31652-2 0  9995","TLE_LINE2":"2 40309 097.1403 040.2388 0101338 058.3657 302.7259 15.15414993 22157","OBJECT_ID":"2014-071E","OBJECT_NUMBER":"40309"},{"ORDINAL":"1","COMMENT":"GENERATED VIA SPACETRACK.ORG API","ORIGINATOR":"JSPOC","NORAD_CAT_ID":"39615","OBJECT_NAME":"BREEZE-M DEB (TANK)","OBJECT_TYPE":"DEBRIS","CLASSIFICATION_TYPE":"U","INTLDES":"14010D","EPOCH":"2015-04-11 03:14:22","EPOCH_MICROSECONDS":"977024","MEAN_MOTION":"2.56539627","ECCENTRICITY":"0.7108109","INCLINATION":"48.4073","RA_OF_ASC_NODE":"60.2208","ARG_OF_PERICENTER":"98.4144","MEAN_ANOMALY":"340.7544","EPHEMERIS_TYPE":"0","ELEMENT_SET_NO":"999","REV_AT_EPOCH":"894","BSTAR":"0.00079482","MEAN_MOTION_DOT":"0.00191463","MEAN_MOTION_DDOT":"5.0094e-07","FILE":"1854585","TLE_LINE0":"0 BREEZE-M DEB (TANK)","TLE_LINE1":"1 39615U 14010D   15101.13498816  .00191463  50094-6  79482-3 0  9999","TLE_LINE2":"2 39615 048.4073 060.2208 7108109 098.4144 340.7544 02.56539627  8949","OBJECT_ID":"2014-010D","OBJECT_NUMBER":"39615"}]